{
    "links": {
        "self": "http://www.neowsapp.com/rest/v1/neo/3714115?api_key=iIulBulltgU6a56xZRHN4H3l9WmuAYTsLGpBGhQ2"
    },
    "id": "3714115",
    "neo_reference_id": "3714115",
    "name": "(2015 FX35)",
    "designation": "2015 FX35",
    "nasa_jpl_url": "http://ssd.jpl.nasa.gov/sbdb.cgi?sstr=3714115",
    "absolute_magnitude_h": 27.7,
    "estimated_diameter": {
        "kilometers": {
            "estimated_diameter_min": 0.0076657557,
            "estimated_diameter_max": 0.0171411509
        },
        "meters": {
            "estimated_diameter_min": 7.6657557353,
            "estimated_diameter_max": 17.1411509231
        },
        "miles": {
            "estimated_diameter_min": 0.0047632783,
            "estimated_diameter_max": 0.0106510141
        },
        "feet": {
            "estimated_diameter_min": 25.1501180466,
            "estimated_diameter_max": 56.2373735944
        }
    },
    "is_potentially_hazardous_asteroid": false,
    "close_approach_data": [
        {
            "close_approach_date": "2012-04-26",
            "close_approach_date_full": "2012-Apr-26 23:38",
            "epoch_date_close_approach": 1335483480000,
            "relative_velocity": {
                "kilometers_per_second": "21.1763241268",
                "kilometers_per_hour": "76234.766856583",
                "miles_per_hour": "47369.3194393029"
            },
            "miss_distance": {
                "astronomical": "0.4718513366",
                "lunar": "183.5501699374",
                "kilometers": "70587954.912013042",
                "miles": "43861321.3058302996"
            },
            "orbiting_body": "Earth"
        },
        {
            "close_approach_date": "2015-03-13",
            "close_approach_date_full": "2015-Mar-13 19:58",
            "epoch_date_close_approach": 1426276680000,
            "relative_velocity": {
                "kilometers_per_second": "7.165121814",
                "kilometers_per_hour": "25794.4385303766",
                "miles_per_hour": "16027.6609857221"
            },
            "miss_distance": {
                "astronomical": "0.0243847852",
                "lunar": "9.4856814428",
                "kilometers": "3647911.926327524",
                "miles": "2266707.3624028712"
            },
            "orbiting_body": "Earth"
        }
    ],
    "orbital_data": {
        "orbit_id": "3",
        "orbit_determination_date": "2017-04-06 08:34:53",
        "first_observation_date": "2015-03-17",
        "last_observation_date": "2015-03-24",
        "data_arc_in_days": 7,
        "observations_used": 18,
        "orbit_uncertainty": "8",
        "minimum_orbit_intersection": ".0157969",
        "jupiter_tisserand_invariant": "3.615",
        "epoch_osculation": "2457102.5",
        "eccentricity": ".5119230373684119",
        "semi_major_axis": "2.050761857563196",
        "inclination": "2.558117057463701",
        "ascending_node_longitude": "355.7101411142851",
        "orbital_period": "1072.682693579606",
        "perihelion_distance": "1.000929618520158",
        "perihelion_argument": "159.6958487341215",
        "aphelion_distance": "3.100594096606233",
        "perihelion_time": "2457081.447125491269",
        "mean_anomaly": "7.065495573394092",
        "mean_motion": ".335607167109836",
        "equinox": "J2000",
        "orbit_class": {
            "orbit_class_type": "APO",
            "orbit_class_description": "Near-Earth asteroid orbits which cross the Earth’s orbit similar to that of 1862 Apollo",
            "orbit_class_range": "a (semi-major axis) > 1.0 AU; q (perihelion) < 1.017 AU"
        }
    },
    "is_sentry_object": false
}